start=new Date('2021-10-17T00:00:00.000Z').valueOf();
sats=[{"LAUNCH_DATE":"2021-01-24","OBJECT_TYPE":"PAYLOAD","MEAN_ANOMALY":"228.1832","REF_FRAME":"TEME","CLASSIFICATION_TYPE":"U","ELEMENT_SET_NO":"999","GP_ID":"187327291","TLE_LINE2":"2 47422  97.4845 349.1982 0004450 131.9779 228.1832 15.14328503 40387","EPOCH":"2021-10-16T09:56:19.104864","ECCENTRICITY":"0.00044500","MEAN_MOTION_DOT":"-0.00002354","PERIAPSIS":"519.949","ARG_OF_PERICENTER":"131.9779","MEAN_ELEMENT_THEORY":"SGP4","APOAPSIS":"526.091","MEAN_MOTION":"15.14328503","COUNTRY_CODE":"US","TLE_LINE1":"1 47422U 21006K   21289.41411001 -.00002354  00000-0 -12509-3 0  9998","DECAY_DATE":null,"INCLINATION":"97.4845","RA_OF_ASC_NODE":"349.1982","OBJECT_NAME":"STARLINK-2208","PERIOD":"95.092","OBJECT_ID":"2021-006K","CENTER_NAME":"EARTH","SITE":"AFETR","BSTAR":"-0.00012509000000","FILE":"3166224","SEMIMAJOR_AXIS":"6901.155","NORAD_CAT_ID":"47422","REV_AT_EPOCH":"4038","MEAN_MOTION_DDOT":"0.0000000000000","EPHEMERIS_TYPE":"0","RCS_SIZE":"LARGE","TIME_SYSTEM":"UTC"},{"FILE":"3166610","SEMIMAJOR_AXIS":"6925.400","NORAD_CAT_ID":"47548","REV_AT_EPOCH":"3896","MEAN_MOTION_DDOT":"0.0000000000000","EPHEMERIS_TYPE":"0","RCS_SIZE":"LARGE","TIME_SYSTEM":"UTC","DECAY_DATE":null,"INCLINATION":"53.0575","RA_OF_ASC_NODE":"18.5576","PERIOD":"95.593","OBJECT_NAME":"STARLINK-1782","OBJECT_ID":"2021-009A","SITE":"AFETR","CENTER_NAME":"EARTH","BSTAR":"0.00014932000000","MEAN_MOTION_DOT":"0.00001942","PERIAPSIS":"546.261","MEAN_ELEMENT_THEORY":"SGP4","ARG_OF_PERICENTER":"89.9387","APOAPSIS":"548.268","MEAN_MOTION":"15.06383243","TLE_LINE1":"1 47548U 21009A   21289.28627146  .00001942  00000-0  14932-3 0  9996","COUNTRY_CODE":"US","LAUNCH_DATE":"2021-02-04","MEAN_ANOMALY":"270.1768","OBJECT_TYPE":"PAYLOAD","REF_FRAME":"TEME","ELEMENT_SET_NO":"999","CLASSIFICATION_TYPE":"U","TLE_LINE2":"2 47548  53.0575  18.5576 0001449  89.9387 270.1768 15.06383243 38961","GP_ID":"187357967","EPOCH":"2021-10-16T06:52:13.854144","ECCENTRICITY":"0.00014490"},{"LAUNCH_DATE":"2021-02-04","MEAN_ANOMALY":"279.6235","OBJECT_TYPE":"PAYLOAD","REF_FRAME":"TEME","ELEMENT_SET_NO":"999","CLASSIFICATION_TYPE":"U","GP_ID":"187357718","TLE_LINE2":"2 47549  53.0573  18.2686 0001432  80.4915 279.6235 15.06382915 38973","EPOCH":"2021-10-16T08:22:27.667776","ECCENTRICITY":"0.00014320","MEAN_MOTION_DOT":"0.00001789","PERIAPSIS":"546.274","ARG_OF_PERICENTER":"80.4915","MEAN_ELEMENT_THEORY":"SGP4","APOAPSIS":"548.258","MEAN_MOTION":"15.06382915","TLE_LINE1":"1 47549U 21009B   21289.34893134  .00001789  00000-0  13901-3 0  9990","COUNTRY_CODE":"US","DECAY_DATE":null,"INCLINATION":"53.0573","RA_OF_ASC_NODE":"18.2686","PERIOD":"95.593","OBJECT_NAME":"STARLINK-1806","OBJECT_ID":"2021-009B","SITE":"AFETR","CENTER_NAME":"EARTH","BSTAR":"0.00013901000000","FILE":"3166610","SEMIMAJOR_AXIS":"6925.401","NORAD_CAT_ID":"47549","REV_AT_EPOCH":"3897","MEAN_MOTION_DDOT":"0.0000000000000","EPHEMERIS_TYPE":"0","RCS_SIZE":"LARGE","TIME_SYSTEM":"UTC"},{"MEAN_ANOMALY":"273.8783","OBJECT_TYPE":"PAYLOAD","REF_FRAME":"TEME","LAUNCH_DATE":"2021-02-04","GP_ID":"187331658","TLE_LINE2":"2 47550  53.0580   7.6174 0001245  86.2348 273.8783 15.06389740 39746","EPOCH":"2021-10-16T11:50:46.437792","ECCENTRICITY":"0.00012450","ELEMENT_SET_NO":"999","CLASSIFICATION_TYPE":"U","PERIAPSIS":"546.383","MEAN_MOTION_DOT":"0.00001734","MEAN_MOTION":"15.06389740","COUNTRY_CODE":"US","TLE_LINE1":"1 47550U 21009C   21289.49359303  .00001734  00000-0  13532-3 0  9993","MEAN_ELEMENT_THEORY":"SGP4","ARG_OF_PERICENTER":"86.2348","APOAPSIS":"548.107","INCLINATION":"53.0580","RA_OF_ASC_NODE":"7.6174","OBJECT_NAME":"STARLINK-1909","PERIOD":"95.593","DECAY_DATE":null,"BSTAR":"0.00013532000000","OBJECT_ID":"2021-009C","SITE":"AFETR","CENTER_NAME":"EARTH","NORAD_CAT_ID":"47550","REV_AT_EPOCH":"3974","MEAN_MOTION_DDOT":"0.0000000000000","FILE":"3166416","SEMIMAJOR_AXIS":"6925.380","TIME_SYSTEM":"UTC","EPHEMERIS_TYPE":"0","RCS_SIZE":"LARGE"},{"FILE":"3166610","SEMIMAJOR_AXIS":"6925.380","REV_AT_EPOCH":"3882","NORAD_CAT_ID":"47551","MEAN_MOTION_DDOT":"0.0000000000000","EPHEMERIS_TYPE":"0","RCS_SIZE":"LARGE","TIME_SYSTEM":"UTC","DECAY_DATE":null,"RA_OF_ASC_NODE":"28.5317","INCLINATION":"53.0569","PERIOD":"95.593","OBJECT_NAME":"STARLINK-1938","OBJECT_ID":"2021-009D","SITE":"AFETR","CENTER_NAME":"EARTH","BSTAR":"0.00017947000000","MEAN_MOTION_DOT":"0.00002392","PERIAPSIS":"546.094","MEAN_ELEMENT_THEORY":"SGP4","ARG_OF_PERICENTER":"86.2119","APOAPSIS":"548.396","MEAN_MOTION":"15.06389849","TLE_LINE1":"1 47551U 21009D   21289.28902122  .00002392  00000-0  17947-3 0  9999","COUNTRY_CODE":"US","LAUNCH_DATE":"2021-02-04","REF_FRAME":"TEME","OBJECT_TYPE":"PAYLOAD","MEAN_ANOMALY":"273.9060","ELEMENT_SET_NO":"999","CLASSIFICATION_TYPE":"U","EPOCH":"2021-10-16T06:56:11.433408","TLE_LINE2":"2 47551  53.0569  28.5317 0001662  86.2119 273.9060 15.06389849 38821","GP_ID":"187357216","ECCENTRICITY":"0.00016620"},{"ARG_OF_PERICENTER":"93.4959","MEAN_ELEMENT_THEORY":"SGP4","APOAPSIS":"548.002","MEAN_MOTION":"15.06380560","TLE_LINE1":"1 47552U 21009E   21289.55903543  .00001210  00000-0  10018-3 0  9998","COUNTRY_CODE":"US","MEAN_MOTION_DOT":"0.00001210","PERIAPSIS":"546.544","ELEMENT_SET_NO":"999","CLASSIFICATION_TYPE":"U","EPOCH":"2021-10-16T13:25:00.661152","GP_ID":"187331726","TLE_LINE2":"2 47552  53.0561  17.3362 0001053  93.4959 266.6151 15.06380560 39604","ECCENTRICITY":"0.00010530","LAUNCH_DATE":"2021-02-04","REF_FRAME":"TEME","OBJECT_TYPE":"PAYLOAD","MEAN_ANOMALY":"266.6151","EPHEMERIS_TYPE":"0","RCS_SIZE":"LARGE","TIME_SYSTEM":"UTC","FILE":"3166420","SEMIMAJOR_AXIS":"6925.408","REV_AT_EPOCH":"3960","NORAD_CAT_ID":"47552","MEAN_MOTION_DDOT":"0.0000000000000","OBJECT_ID":"2021-009E","SITE":"AFETR","CENTER_NAME":"EARTH","BSTAR":"0.00010018000000","DECAY_DATE":null,"RA_OF_ASC_NODE":"17.3362","INCLINATION":"53.0561","PERIOD":"95.593","OBJECT_NAME":"STARLINK-1940"},{"APOAPSIS":"551.018","MEAN_ELEMENT_THEORY":"SGP4","ARG_OF_PERICENTER":"230.6673","TLE_LINE1":"1 47553U 21009F   21289.21254399  .00001982  00000-0  15206-3 0  9990","COUNTRY_CODE":"US","MEAN_MOTION":"15.06373543","MEAN_MOTION_DOT":"0.00001982","PERIAPSIS":"543.571","CLASSIFICATION_TYPE":"U","ELEMENT_SET_NO":"999","ECCENTRICITY":"0.00053770","EPOCH":"2021-10-16T05:06:03.800736","GP_ID":"187358218","TLE_LINE2":"2 47553  53.0575  18.8920 0005377 230.6673 129.3840 15.06373543 38957","LAUNCH_DATE":"2021-02-04","REF_FRAME":"TEME","OBJECT_TYPE":"PAYLOAD","MEAN_ANOMALY":"129.3840","RCS_SIZE":"LARGE","EPHEMERIS_TYPE":"0","TIME_SYSTEM":"UTC","SEMIMAJOR_AXIS":"6925.430","FILE":"3166610","MEAN_MOTION_DDOT":"0.0000000000000","REV_AT_EPOCH":"3895","NORAD_CAT_ID":"47553","CENTER_NAME":"EARTH","SITE":"AFETR","OBJECT_ID":"2021-009F","BSTAR":"0.00015206000000","DECAY_DATE":null,"OBJECT_NAME":"STARLINK-1951","PERIOD":"95.594","RA_OF_ASC_NODE":"18.8920","INCLINATION":"53.0575"},{"BSTAR":"0.00013897000000","OBJECT_ID":"2021-009G","SITE":"AFETR","CENTER_NAME":"EARTH","INCLINATION":"53.0572","RA_OF_ASC_NODE":"38.1891","PERIOD":"95.594","OBJECT_NAME":"STARLINK-1953","DECAY_DATE":null,"TIME_SYSTEM":"UTC","EPHEMERIS_TYPE":"0","RCS_SIZE":"LARGE","NORAD_CAT_ID":"47554","REV_AT_EPOCH":"3869","MEAN_MOTION_DDOT":"0.0000000000000","FILE":"3166610","SEMIMAJOR_AXIS":"6925.416","GP_ID":"187356966","TLE_LINE2":"2 47554  53.0572  38.1891 0004842  27.0128 333.1113 15.06378026 38696","EPOCH":"2021-10-16T08:46:20.961696","ECCENTRICITY":"0.00048420","CLASSIFICATION_TYPE":"U","ELEMENT_SET_NO":"999","OBJECT_TYPE":"PAYLOAD","MEAN_ANOMALY":"333.1113","REF_FRAME":"TEME","LAUNCH_DATE":"2021-02-04","MEAN_MOTION":"15.06378026","COUNTRY_CODE":"US","TLE_LINE1":"1 47554U 21009G   21289.36552039  .00001787  00000-0  13897-3 0  9996","MEAN_ELEMENT_THEORY":"SGP4","ARG_OF_PERICENTER":"27.0128","APOAPSIS":"550.634","PERIAPSIS":"543.928","MEAN_MOTION_DOT":"0.00001787"},{"RA_OF_ASC_NODE":"27.4291","INCLINATION":"53.0550","PERIOD":"95.593","OBJECT_NAME":"STARLINK-1954","DECAY_DATE":null,"BSTAR":"0.00013228000000","OBJECT_ID":"2021-009H","CENTER_NAME":"EARTH","SITE":"AFETR","REV_AT_EPOCH":"3946","NORAD_CAT_ID":"47555","MEAN_MOTION_DDOT":"0.0000000000000","FILE":"3166418","SEMIMAJOR_AXIS":"6925.406","TIME_SYSTEM":"UTC","EPHEMERIS_TYPE":"0","RCS_SIZE":"LARGE","REF_FRAME":"TEME","OBJECT_TYPE":"PAYLOAD","MEAN_ANOMALY":"287.8359","LAUNCH_DATE":"2021-02-04","EPOCH":"2021-10-16T12:57:07.881984","GP_ID":"187331695","TLE_LINE2":"2 47555  53.0550  27.4291 0001238  72.2765 287.8359 15.06381253 39462","ECCENTRICITY":"0.00012380","CLASSIFICATION_TYPE":"U","ELEMENT_SET_NO":"999","PERIAPSIS":"546.414","MEAN_MOTION_DOT":"0.00001688","MEAN_MOTION":"15.06381253","TLE_LINE1":"1 47555U 21009H   21289.53967456  .00001688  00000-0  13228-3 0  9997","COUNTRY_CODE":"US","MEAN_ELEMENT_THEORY":"SGP4","ARG_OF_PERICENTER":"72.2765","APOAPSIS":"548.128"},{"OBJECT_TYPE":"PAYLOAD","MEAN_ANOMALY":"262.6360","REF_FRAME":"TEME","LAUNCH_DATE":"2021-02-04","ECCENTRICITY":"0.00013650","GP_ID":"187357968","TLE_LINE2":"2 47556  53.0566  48.1406 0001365  97.4784 262.6360 15.06376588 38556","EPOCH":"2021-10-16T09:00:56.801088","CLASSIFICATION_TYPE":"U","ELEMENT_SET_NO":"999","PERIAPSIS":"546.340","MEAN_MOTION_DOT":"-0.00000288","TLE_LINE1":"1 47556U 21009J   21289.37565742 -.00000288  00000-0 -42642-6 0  9994","COUNTRY_CODE":"US","MEAN_MOTION":"15.06376588","APOAPSIS":"548.231","ARG_OF_PERICENTER":"97.4784","MEAN_ELEMENT_THEORY":"SGP4","PERIOD":"95.594","OBJECT_NAME":"STARLINK-1955","INCLINATION":"53.0566","RA_OF_ASC_NODE":"48.1406","DECAY_DATE":null,"BSTAR":"-0.00000042642000","SITE":"AFETR","CENTER_NAME":"EARTH","OBJECT_ID":"2021-009J","MEAN_MOTION_DDOT":"0.0000000000000","NORAD_CAT_ID":"47556","REV_AT_EPOCH":"3855","SEMIMAJOR_AXIS":"6925.420","FILE":"3166610","TIME_SYSTEM":"UTC","EPHEMERIS_TYPE":"0","RCS_SIZE":"LARGE"}];
